NORAD_CAT_ID,OBJECT_NAME,OBJECT_TYPE,EPOCH,MEAN_MOTION,ECCENTRICITY,INCLINATION,RA_OF_ASC_NODE,ARG_OF_PERICENTER,MEAN_ANOMALY,BSTAR,MEAN_MOTION_DOT,MEAN_MOTION_DDOT,TLE_LINE0,TLE_LINE1,TLE_LINE2,SEMIMAJOR_AXIS,PERIOD,APOGEE,PERIGEE,DECAYED
53033.0,STARLINK-4167,PAYLOAD,2024-06-21 12:34:19,15.08840822,0.0001318,53.2187,5.0937,94.1862,265.9281,7.3808e-05,8.87e-06,0.0,0 STARLINK-4167,1 53033U 22076AZ  24173.52383294  .00000887  00000-0  73808-4 0  9997,2 53033  53.2187   5.0937 0001318  94.1862 265.9281 15.08840822109066,6917.878,95.438,540.655,538.831,0.0
53033.0,STARLINK-4167,PAYLOAD,2024-06-21 20:31:14,15.08843488,0.0001228,53.2177,3.6058,88.9252,271.1881,2.5133e-05,1.12e-06,0.0,0 STARLINK-4167,1 53033U 22076AZ  24173.85503304  .00000112  00000-0  25133-4 0  9998,2 53033  53.2177   3.6058 0001228  88.9252 271.1881 15.08843488108646,6917.87,95.437,540.584,538.885,0.0
53033.0,STARLINK-4167,PAYLOAD,2024-06-22 12:25:06,15.08836943,0.000123,53.2178,0.6322,91.3177,268.7956,0.00012167,1.649e-05,0.0,0 STARLINK-4167,1 53033U 22076AZ  24174.51743397  .00001649  00000-0  12167-3 0  9998,2 53033  53.2178   0.6322 0001230  91.3177 268.7956 15.08836943108749,6917.89,95.438,540.606,538.904,0.0
53033.0,STARLINK-4167,PAYLOAD,2024-06-22 18:46:38,15.08842063,0.0001176,53.2177,359.4424,95.4695,264.6431,9.1364e-05,1.167e-05,0.0,0 STARLINK-4167,1 53033U 22076AZ  24174.78239204  .00001167  00000-0  91364-4 0  9996,2 53033  53.2177 359.4424 0001176  95.4695 264.6431 15.08842063109255,6917.874,95.437,540.553,538.926,0.0
53033.0,STARLINK-4167,PAYLOAD,2024-06-23 21:48:11,15.08843021,0.0001193,53.2174,354.387,91.609,268.5039,6.5976e-05,7.62e-06,0.0,0 STARLINK-4167,1 53033U 22076AZ  24175.90847098  .00000762  00000-0  65976-4 0  9997,2 53033  53.2174 354.3870 0001193  91.6090 268.5039 15.08843021108955,6917.871,95.437,540.561,538.911,0.0
53033.0,STARLINK-4167,PAYLOAD,2024-06-24 12:06:40,15.08840569,0.0001136,53.2169,351.7097,86.7388,273.3734,1.9734e-05,2.6e-07,0.0,0 STARLINK-4167,1 53033U 22076AZ  24176.50463369  .00000026  00000-0  19734-4 0  9993,2 53033  53.2169 351.7097 0001136  86.7388 273.3734 15.08840569109044,6917.879,95.438,540.53,538.958,0.0
53033.0,STARLINK-4167,PAYLOAD,2024-06-24 18:28:13,15.08836938,0.0001231,53.2179,350.5191,104.2407,255.8722,-2.8107e-05,-7.35e-06,0.0,0 STARLINK-4167,1 53033U 22076AZ  24176.76959671 -.00000735  00000-0 -28107-4 0  9990,2 53033  53.2179 350.5191 0001231 104.2407 255.8722 15.08836938109554,6917.89,95.438,540.606,538.903,0.0
53033.0,STARLINK-4167,PAYLOAD,2024-06-25 19:54:23,15.08840041,0.0001269,53.2184,345.7598,105.8992,254.214,5.4581e-05,5.81e-06,0.0,0 STARLINK-4167,1 53033U 22076AZ  24177.82943344  .00000581  00000-0  54581-4 0  9990,2 53033  53.2184 345.7598 0001269 105.8992 254.2140 15.08840041109719,6917.88,95.438,540.623,538.867,0.0
53033.0,STARLINK-4167,PAYLOAD,2024-06-26 03:51:18,15.08851218,0.0001209,53.218,344.277,82.5904,277.5225,0.00010038,1.311e-05,0.0,0 STARLINK-4167,1 53033U 22076AZ  24178.16062524  .00001311  00000-0  10038-3 0  9990,2 53033  53.2180 344.2770 0001209  82.5904 277.5225 15.08851218109764,6917.846,95.437,540.547,538.875,0.0
53033.0,STARLINK-4167,PAYLOAD,2024-06-27 03:42:06,15.08837244,0.0001312,53.2175,339.8188,63.9516,296.1611,2.5949e-05,1.25e-06,0.0,0 STARLINK-4167,1 53033U 22076AZ  24179.15423808  .00000125  00000-0  25949-4 0  9996,2 53033  53.2175 339.8188 0001312  63.9516 296.1611 15.08837244109914,6917.889,95.438,540.661,538.846,0.0
53033.0,STARLINK-4167,PAYLOAD,2024-06-27 18:00:34,15.08839374,0.0001132,53.2179,337.1381,88.1538,271.9583,-3.9699e-05,-9.2e-06,0.0,0 STARLINK-4167,1 53033U 22076AZ  24179.75040021 -.00000920  00000-0 -39699-4 0  9996,2 53033  53.2179 337.1381 0001132  88.1538 271.9583 15.08839374109530,6917.882,95.438,540.53,538.964,0.0
53033.0,STARLINK-4167,PAYLOAD,2024-06-28 14:40:35,15.08839841,0.000204,53.2184,333.2691,75.1775,284.9443,8.7603e-05,1.106e-05,0.0,0 STARLINK-4167,1 53033U 22076AZ  24180.61152095  .00001106  00000-0  87603-4 0  9991,2 53033  53.2184 333.2691 0002040  75.1775 284.9443 15.08839841109667,6917.881,95.438,541.157,538.335,0.0
53033.0,STARLINK-4167,PAYLOAD,2024-06-28 17:51:20,15.08848527,0.0001357,53.2174,332.6777,85.5395,274.5753,0.0003161,4.748e-05,0.0,0 STARLINK-4167,1 53033U 22076AZ  24180.74398376  .00004748  00000-0  31610-3 0  9990,2 53033  53.2174 332.6777 0001357  85.5395 274.5753 15.08848527110153,6917.854,95.437,540.658,538.781,0.0
53033.0,STARLINK-4167,PAYLOAD,2024-06-29 09:45:14,15.08817014,0.0001575,53.216,329.7054,94.7967,265.3205,1.0155e-05,-1.26e-06,0.0,0 STARLINK-4167,1 53033U 22076AZ  24181.40641292 -.00000126  00000-0  10155-4 0  9991,2 53033  53.2160 329.7054 0001575  94.7967 265.3205 15.08817014110250,6917.951,95.439,540.905,538.726,0.0
53033.0,STARLINK-4167,PAYLOAD,2024-06-29 14:31:23,15.0881758,0.0001373,53.2157,328.8148,94.6338,265.4811,7.2231e-06,-1.73e-06,0.0,0 STARLINK-4167,1 53033U 22076AZ  24181.60513430 -.00000173  00000-0  72231-5 0  9991,2 53033  53.2157 328.8148 0001373  94.6338 265.4811 15.08817580109819,6917.949,95.439,540.764,538.864,0.0
53033.0,STARLINK-4167,PAYLOAD,2024-06-29 19:17:32,15.08828428,0.0001307,53.2147,327.9207,124.1789,235.9327,-3.8055e-05,-8.93e-06,0.0,0 STARLINK-4167,1 53033U 22076AZ  24181.80384953 -.00000893  00000-0 -38055-4 0  9994,2 53033  53.2147 327.9207 0001307 124.1789 235.9327 15.08828428110314,6917.916,95.438,540.685,538.877,0.0
53033.0,STARLINK-4167,PAYLOAD,2024-06-30 03:14:27,15.08837977,0.0001338,53.2165,326.4341,103.6775,256.4366,1.627e-05,-2.9e-07,0.0,0 STARLINK-4167,1 53033U 22076AZ  24182.13504379 -.00000029  00000-0  16270-4 0  9992,2 53033  53.2165 326.4341 0001338 103.6775 256.4366 15.08837977110363,6917.887,95.438,540.677,538.826,0.0
53033.0,STARLINK-4167,PAYLOAD,2024-06-30 14:22:09,15.08841819,0.0001473,53.2178,324.3524,102.2044,257.9113,6.3898e-05,7.29e-06,0.0,0 STARLINK-4167,1 53033U 22076AZ  24182.59872307  .00000729  00000-0  63898-4 0  9995,2 53033  53.2178 324.3524 0001473 102.2044 257.9113 15.08841819109961,6917.875,95.437,540.759,538.721,0.0
53033.0,STARLINK-4167,PAYLOAD,2024-06-30 15:57:32,15.08842967,0.0001312,53.2162,324.0568,112.6127,247.5004,-4.3626e-05,-9.82e-06,0.0,0 STARLINK-4167,1 53033U 22076AZ  24182.66496124 -.00000982  00000-0 -43626-4 0  9992,2 53033  53.2162 324.0568 0001312 112.6127 247.5004 15.08842967109978,6917.871,95.437,540.644,538.829,0.0
53033.0,STARLINK-4167,PAYLOAD,2024-07-01 12:37:34,15.08832202,0.0001312,53.2167,320.1888,104.9232,255.1905,0.00030905,4.633e-05,0.0,0 STARLINK-4167,1 53033U 22076AZ  24183.52608952  .00004633  00000-0  30905-3 0  9992,2 53033  53.2167 320.1888 0001312 104.9232 255.1905 15.08832202110570,6917.904,95.438,540.677,538.862,0.0
53033.0,STARLINK-4167,PAYLOAD,2024-07-01 14:12:57,15.08833861,0.0001457,53.2164,319.8924,99.0876,261.0281,0.00022728,3.33e-05,0.0,0 STARLINK-4167,1 53033U 22076AZ  24183.59232930  .00003330  00000-0  22728-3 0  9995,2 53033  53.2164 319.8924 0001457  99.0876 261.0281 15.08833861110116,6917.899,95.438,540.772,538.756,0.0
53033.0,STARLINK-4167,PAYLOAD,2024-07-01 15:48:20,15.08825002,0.0001129,53.2166,319.5949,99.4227,260.6893,0.00020416,2.962e-05,0.0,0 STARLINK-4167,1 53033U 22076AZ  24183.65857035  .00002962  00000-0  20416-3 0  9993,2 53033  53.2166 319.5949 0001129  99.4227 260.6893 15.08825002110125,6917.926,95.439,540.572,539.01,0.0
53033.0,STARLINK-4167,PAYLOAD,2024-07-02 14:03:44,15.08836578,0.0001175,53.216,315.4294,93.4048,266.7078,5.1106e-05,5.26e-06,0.0,0 STARLINK-4167,1 53033U 22076AZ  24184.58592860  .00000526  00000-0  51106-4 0  9993,2 53033  53.2160 315.4294 0001175  93.4048 266.7078 15.08836578110260,6917.891,95.438,540.569,538.943,0.0
53033.0,STARLINK-4167,PAYLOAD,2024-07-02 15:39:07,15.08837184,0.0001104,53.216,315.1324,92.0706,268.0413,6.7752e-05,7.91e-06,0.0,0 STARLINK-4167,1 53033U 22076AZ  24184.65216769  .00000791  00000-0  67752-4 0  9990,2 53033  53.2160 315.1324 0001104  92.0706 268.0413 15.08837184110744,6917.889,95.438,540.518,538.99,0.0
53033.0,STARLINK-4167,PAYLOAD,2024-07-03 01:11:25,15.08850928,0.0001059,53.217,313.3485,87.853,272.2583,0.00012757,1.744e-05,0.0,0 STARLINK-4167,1 53033U 22076AZ  24185.04959560  .00001744  00000-0  12757-3 0  9990,2 53033  53.2170 313.3485 0001059  87.8530 272.2583 15.08850928110802,6917.847,95.437,540.445,538.979,0.0
53033.0,STARLINK-4167,PAYLOAD,2024-07-03 12:19:08,15.08831357,0.0001142,53.2164,311.2666,89.8559,270.2564,6.3424e-06,-1.87e-06,0.0,0 STARLINK-4167,1 53033U 22076AZ  24185.51329407 -.00000187  00000-0  63424-5 0  9993,2 53033  53.2164 311.2666 0001142  89.8559 270.2564 15.08831357110878,6917.907,95.438,540.562,538.982,0.0
53033.0,STARLINK-4167,PAYLOAD,2024-07-03 15:29:54,15.08830911,0.0001017,53.2162,310.6731,69.8297,290.2805,1.6024e-05,-3.3e-07,0.0,0 STARLINK-4167,1 53033U 22076AZ  24185.64577510 -.00000033  00000-0  16024-4 0  9990,2 53033  53.2162 310.6731 0001017  69.8297 290.2805 15.08830911110426,6917.908,95.438,540.477,539.07,0.0
53033.0,STARLINK-4167,PAYLOAD,2024-07-04 01:02:12,15.08844489,0.000109,53.217,308.8894,80.2907,279.8208,0.00010203,1.337e-05,0.0,0 STARLINK-4167,1 53033U 22076AZ  24186.04320458  .00001337  00000-0  10203-3 0  9991,2 53033  53.2170 308.8894 0001090  80.2907 279.8208 15.08844489110953,6917.867,95.437,540.486,538.978,0.0
53033.0,STARLINK-4167,PAYLOAD,2024-07-04 12:09:55,15.0883212,0.0001801,53.2182,306.8118,90.2704,269.8495,5.9426e-05,6.58e-06,0.0,0 STARLINK-4167,1 53033U 22076AZ  24186.50689659  .00000658  00000-0  59426-4 0  9999,2 53033  53.2182 306.8118 0001801  90.2704 269.8495 15.08832120111024,6917.904,95.438,541.015,538.524,0.0
53033.0,STARLINK-4167,PAYLOAD,2024-07-04 13:45:19,15.08830517,0.0001408,53.2191,306.5117,86.8079,273.3074,1.8194e-05,2e-08,0.0,0 STARLINK-4167,1 53033U 22076AZ  24186.57313828  .00000002  00000-0  18194-4 0  9998,2 53033  53.2191 306.5117 0001408  86.8079 273.3074 15.08830517110568,6917.909,95.438,540.748,538.8,0.0
